ARCSTONE                
1 64540U 25135N   26068.88991918  .00026427  00000+0  94900-3 0  9995
2 64540  97.4495 185.9194 0004120 166.7863 193.3485 15.28638458 39847
STARLINK-35786          
1 67040U 25294L   26068.93056065  .00029442  00000+0  10747-2 0  9996
2 67040  42.9947  36.9209 0000440 105.6907 254.3993 15.27593319 14835
